NORAD_CAT_ID,OBJECT_NAME,OBJECT_TYPE,EPOCH,MEAN_MOTION,ECCENTRICITY,INCLINATION,RA_OF_ASC_NODE,ARG_OF_PERICENTER,MEAN_ANOMALY,BSTAR,MEAN_MOTION_DOT,MEAN_MOTION_DDOT,TLE_LINE0,TLE_LINE1,TLE_LINE2,SEMIMAJOR_AXIS,PERIOD,APOGEE,PERIGEE,DECAYED
53850.0,STARLINK-4767,PAYLOAD,2024-03-25 04:50:39,15.08844383,0.0001395,53.2175,261.1971,100.2737,259.8413,0.00014455,2.014e-05,0.0,0 STARLINK-4767,1 53850U 22114AJ  24085.20184242  .00002014  00000-0  14455-3 0  9992,2 53850  53.2175 261.1971 0001395 100.2737 259.8413 15.08844383 84571,6917.867,95.437,540.697,538.767,0.0
53850.0,STARLINK-4767,PAYLOAD,2024-03-25 19:09:07,15.08843133,0.0001472,53.217,258.5222,88.0624,272.0537,0.00010897,1.447e-05,0.0,0 STARLINK-4767,1 53850U 22114AJ  24085.79800684  .00001447  00000-0  10897-3 0  9996,2 53850  53.2170 258.5222 0001472  88.0624 272.0537 15.08843133 84665,6917.871,95.437,540.754,538.718,0.0
53850.0,STARLINK-4767,PAYLOAD,2024-03-26 04:41:27,15.0883551,0.0001532,53.218,256.7372,78.701,281.4154,2.1154e-05,4.9e-07,0.0,0 STARLINK-4767,1 53850U 22114AJ  24086.19545457  .00000049  00000-0  21154-4 0  9991,2 53850  53.2180 256.7372 0001532  78.7010 281.4154 15.08835510 84720,6917.894,95.438,540.819,538.699,0.0
53850.0,STARLINK-4767,PAYLOAD,2024-03-26 11:03:00,15.08834318,0.0001706,53.2163,255.5486,80.7385,279.38,-3.5238e-05,-8.49e-06,0.0,0 STARLINK-4767,1 53850U 22114AJ  24086.46041882 -.00000849  00000-0 -35238-4 0  9992,2 53850  53.2163 255.5486 0001706  80.7385 279.3800 15.08834318 85309,6917.898,95.438,540.943,538.583,0.0
53850.0,STARLINK-4767,PAYLOAD,2024-03-26 17:24:33,15.08833885,0.000164,53.217,254.3577,77.9583,282.1593,-0.00010994,-2.037e-05,0.0,0 STARLINK-4767,1 53850U 22114AJ  24086.72538211 -.00002037  00000-0 -10994-3 0  9990,2 53850  53.2170 254.3577 0001640  77.9583 282.1593 15.08833885 84803,6917.899,95.438,540.899,538.63,0.0
53850.0,STARLINK-4767,PAYLOAD,2024-03-27 04:32:14,15.08839297,0.0001513,53.2172,252.2752,86.5351,273.5814,-5.6332e-05,-1.184e-05,0.0,0 STARLINK-4767,1 53850U 22114AJ  24087.18905737 -.00001184  00000-0 -56332-4 0  9991,2 53850  53.2172 252.2752 0001513  86.5351 273.5814 15.08839297 84875,6917.883,95.438,540.794,538.701,0.0
53850.0,STARLINK-4767,PAYLOAD,2024-03-27 20:26:06,15.0884425,0.0001456,53.2176,249.3011,93.8579,266.2579,7.6516e-05,9.3e-06,0.0,0 STARLINK-4767,1 53850U 22114AJ  24087.85145861  .00000930  00000-0  76516-4 0  9991,2 53850  53.2176 249.3011 0001456  93.8579 266.2579 15.08844250 85517,6917.867,95.437,540.74,538.725,0.0
53850.0,STARLINK-4767,PAYLOAD,2024-03-28 20:16:52,15.0885254,0.0001358,53.2147,244.8415,78.8828,281.2316,0.00028729,4.289e-05,0.0,0 STARLINK-4767,1 53850U 22114AJ  24088.84504888  .00004289  00000-0  28729-3 0  9992,2 53850  53.2147 244.8415 0001358  78.8828 281.2316 15.08852540 85128,6917.842,95.437,540.647,538.768,0.0
53850.0,STARLINK-4767,PAYLOAD,2024-03-29 16:56:53,15.08833851,0.0001503,53.2176,240.9733,97.731,262.3853,0.00025303,3.741e-05,0.0,0 STARLINK-4767,1 53850U 22114AJ  24089.70617921  .00003741  00000-0  25303-3 0  9998,2 53850  53.2176 240.9733 0001503  97.7310 262.3853 15.08833851 85252,6917.899,95.438,540.804,538.724,0.0
53850.0,STARLINK-4767,PAYLOAD,2024-03-30 02:29:12,15.08850834,0.0001145,53.2171,239.1927,86.7981,273.3142,4.5537e-06,-2.15e-06,0.0,0 STARLINK-4767,1 53850U 22114AJ  24090.10361496 -.00000215  00000-0  45537-5 0  9994,2 53850  53.2171 239.1927 0001145  86.7981 273.3142 15.08850834 85316,6917.847,95.437,540.504,538.92,0.0
53850.0,STARLINK-4767,PAYLOAD,2024-03-30 13:36:54,15.08857436,0.0001603,53.2211,237.1131,95.6369,264.4806,-0.00025434,-4.336e-05,0.0,0 STARLINK-4767,1 53850U 22114AJ  24090.56729897 -.00004336  00000-0 -25434-3 0  9998,2 53850  53.2211 237.1131 0001603  95.6369 264.4806 15.08857436 85924,6917.827,95.436,540.801,538.583,0.0
53850.0,STARLINK-4767,PAYLOAD,2024-03-30 16:47:40,15.08863809,8.57e-05,53.2166,236.5152,69.6421,290.4663,-0.00022092,-3.804e-05,0.0,0 STARLINK-4767,1 53850U 22114AJ  24090.69977058 -.00003804  00000-0 -22092-3 0  9992,2 53850  53.2166 236.5152 0000857  69.6421 290.4663 15.08863809 85942,6917.808,95.436,540.265,539.08,0.0
53850.0,STARLINK-4767,PAYLOAD,2024-03-31 02:19:59,15.08844413,0.0001448,53.2141,234.7323,85.5511,274.5647,-1.2779e-05,-4.91e-06,0.0,0 STARLINK-4767,1 53850U 22114AJ  24091.09721575 -.00000491  00000-0 -12779-4 0  9999,2 53850  53.2141 234.7323 0001448  85.5511 274.5647 15.08844413 85461,6917.867,95.437,540.734,538.73,0.0
53850.0,STARLINK-4767,PAYLOAD,2024-03-31 13:27:41,15.08839224,9.61e-05,53.2158,232.6524,93.2188,266.8914,-1.5707e-06,-3.13e-06,0.0,0 STARLINK-4767,1 53850U 22114AJ  24091.56089793 -.00000313  00000-0 -15707-5 0  9998,2 53850  53.2158 232.6524 0000961  93.2188 266.8914 15.08839224 86077,6917.883,95.438,540.413,539.083,0.0
53850.0,STARLINK-4767,PAYLOAD,2024-03-31 19:49:13,15.08848577,0.0001566,53.2198,231.4625,93.9162,266.201,0.00013505,1.862e-05,0.0,0 STARLINK-4767,1 53850U 22114AJ  24091.82584786  .00001862  00000-0  13505-3 0  9999,2 53850  53.2198 231.4625 0001566  93.9162 266.2010 15.08848577 86118,6917.854,95.437,540.803,538.636,0.0
53850.0,STARLINK-4767,PAYLOAD,2024-04-01 02:10:47,15.08825598,0.0002167,53.2193,230.2729,92.1177,268.0064,-5.8984e-05,-1.227e-05,0.0,0 STARLINK-4767,1 53850U 22114AJ  24092.09083094 -.00001227  00000-0 -58984-4 0  9993,2 53850  53.2193 230.2729 0002167  92.1177 268.0064 15.08825598 85611,6917.924,95.438,541.289,538.29,0.0
53850.0,STARLINK-4767,PAYLOAD,2024-04-01 18:04:37,15.08840985,0.000106,53.2167,227.2986,93.9181,266.1932,7.3864e-05,8.88e-06,0.0,0 STARLINK-4767,1 53850U 22114AJ  24092.75321755  .00000888  00000-0  73864-4 0  9999,2 53850  53.2167 227.2986 0001060  93.9181 266.1932 15.08840985 85719,6917.877,95.437,540.476,539.009,0.0
53850.0,STARLINK-4767,PAYLOAD,2024-04-02 14:44:39,15.08838918,0.0001151,53.2169,223.4331,85.2765,274.8359,6.0264e-05,6.71e-06,0.0,0 STARLINK-4767,1 53850U 22114AJ  24093.61434091  .00000671  00000-0  60264-4 0  9993,2 53850  53.2169 223.4331 0001151  85.2765 274.8359 15.08838918 86382,6917.884,95.438,540.545,538.952,0.0
53850.0,STARLINK-4767,PAYLOAD,2024-04-02 16:20:01,15.08846385,0.0001271,53.2183,223.1348,81.3184,278.7952,-6.0432e-06,-3.84e-06,0.0,0 STARLINK-4767,1 53850U 22114AJ  24093.68057864 -.00000384  00000-0 -60432-5 0  9990,2 53850  53.2183 223.1348 0001271  81.3184 278.7952 15.08846385 86398,6917.861,95.437,540.605,538.847,0.0
53850.0,STARLINK-4767,PAYLOAD,2024-04-03 08:13:53,15.0883521,0.0001097,53.2171,220.1627,87.755,272.3568,0.00012819,1.753e-05,0.0,0 STARLINK-4767,1 53850U 22114AJ  24094.34298067  .00001753  00000-0  12819-3 0  9999,2 53850  53.2171 220.1627 0001097  87.7550 272.3568 15.08835210 85954,6917.895,95.438,540.519,539.001,0.0
53850.0,STARLINK-4767,PAYLOAD,2024-04-03 14:35:26,15.08837693,0.0001244,53.2172,218.9738,86.5382,273.5752,0.00011167,1.49e-05,0.0,0 STARLINK-4767,1 53850U 22114AJ  24094.60794029  .00001490  00000-0  11167-3 0  9990,2 53850  53.2172 218.9738 0001244  86.5382 273.5752 15.08837693 86537,6917.887,95.438,540.613,538.892,0.0
53850.0,STARLINK-4767,PAYLOAD,2024-04-03 17:46:11,15.08846188,0.0001202,53.2172,218.3772,90.9995,269.1135,7.1122e-05,8.44e-06,0.0,0 STARLINK-4767,1 53850U 22114AJ  24094.74041594  .00000844  00000-0  71122-4 0  9997,2 53850  53.2172 218.3772 0001202  90.9995 269.1135 15.08846188 86010,6917.861,95.437,540.558,538.895,0.0
53850.0,STARLINK-4767,PAYLOAD,2024-04-04 12:50:49,15.0883961,0.0001307,53.217,214.8103,87.72,272.3942,3.0034e-05,1.9e-06,0.0,0 STARLINK-4767,1 53850U 22114AJ  24095.53530029  .00000190  00000-0  30034-4 0  9992,2 53850  53.2170 214.8103 0001307  87.7200 272.3942 15.08839610 86133,6917.882,95.438,540.651,538.842,0.0
53850.0,STARLINK-4767,PAYLOAD,2024-04-04 14:26:12,15.08841026,0.00013,53.2177,214.5115,94.2167,265.8973,5.7461e-05,6.27e-06,0.0,0 STARLINK-4767,1 53850U 22114AJ  24095.60153814  .00000627  00000-0  57461-4 0  9991,2 53850  53.2177 214.5115 0001300  94.2167 265.8973 15.08841026 86683,6917.877,95.437,540.642,538.843,0.0
53850.0,STARLINK-4767,PAYLOAD,2024-04-05 14:16:59,15.08846928,0.0001271,53.2174,210.0528,86.3816,273.7322,6.8784e-05,8.07e-06,0.0,0 STARLINK-4767,1 53850U 22114AJ  24096.59513180  .00000807  00000-0  68784-4 0  9996,2 53850  53.2174 210.0528 0001271  86.3816 273.7322 15.08846928 86838,6917.859,95.437,540.603,538.845,0.0
53850.0,STARLINK-4767,PAYLOAD,2024-04-06 14:07:47,15.08835598,0.0001342,53.2177,205.5909,92.6207,267.4939,-1.3815e-05,-5.08e-06,0.0,0 STARLINK-4767,1 53850U 22114AJ  24097.58874126 -.00000508  00000-0 -13815-4 0  9991,2 53850  53.2177 205.5909 0001342  92.6207 267.4939 15.08835598 86987,6917.894,95.438,540.687,538.83,0.0
53850.0,STARLINK-4767,PAYLOAD,2024-04-07 13:58:34,15.0883586,0.0001508,53.2179,201.1297,87.0147,273.1017,-3.984e-05,-9.22e-06,0.0,0 STARLINK-4767,1 53850U 22114AJ  24098.58234640 -.00000922  00000-0 -39840-4 0  9999,2 53850  53.2179 201.1297 0001508  87.0147 273.1017 15.08835860 87137,6917.893,95.438,540.801,538.715,0.0
53850.0,STARLINK-4767,PAYLOAD,2024-04-08 05:52:26,15.088301,0.0001495,53.2178,198.1573,88.4363,271.6801,8.9925e-05,1.143e-05,0.0,0 STARLINK-4767,1 53850U 22114AJ  24099.24474755  .00001143  00000-0  89925-4 0  9999,2 53850  53.2178 198.1573 0001495  88.4363 271.6801 15.08830100 87235,6917.911,95.438,540.81,538.741,0.0
53850.0,STARLINK-4767,PAYLOAD,2024-04-08 23:21:40,15.08836877,0.0001483,53.2174,194.8867,89.503,270.6132,0.00012091,1.637e-05,0.0,0 STARLINK-4767,1 53850U 22114AJ  24099.97338506  .00001637  00000-0  12091-3 0  9999,2 53850  53.2174 194.8867 0001483  89.5030 270.6132 15.08836877 87345,6917.89,95.438,540.781,538.729,0.0
53850.0,STARLINK-4767,PAYLOAD,2024-04-09 10:29:22,15.08834832,0.0001476,53.2179,192.8055,91.804,268.3121,8.6615e-05,1.091e-05,0.0,0 STARLINK-4767,1 53850U 22114AJ  24100.43706870  .00001091  00000-0  86615-4 0  9994,2 53850  53.2179 192.8055 0001476  91.8040 268.3121 15.08834832 87415,6917.896,95.438,540.782,538.74,0.0
